<?xml version="1.0" encoding="UTF-8"?>
<kml xmlns="http://www.opengis.net/kml/2.2">
<Document>
	<name>Tanışma Yürüyüşü</name>

	<Style id="maviHat">
		<LineStyle>
			<color>fff37000</color>
			<width>5</width>
		</LineStyle>
	</Style>

	<Style id="kirmiziHat">
		<LineStyle>
			<color>ff0000ff</color>
			<width>5</width>
		</LineStyle>
	</Style>

	<!-- 1. MAVİ ROTA -->
	<Placemark>
		<name>Path</name>
		<styleUrl>#maviHat</styleUrl>
		<LineString>
			<tessellate>1</tessellate>
			<coordinates>
				32.727882,40.684049,1539.1 32.72791,40.684006,1540.3 32.728078,40.683997,1541.7 32.72842,40.683706,1540.5 32.728673,40.683387,1541.5 32.72912,40.683318,1544.3 32.729644,40.683111,1547.9 32.730277,40.682834,1552.7 32.730807,40.682456,1557.8 32.731424,40.681879,1569.6 32.73219,40.68137,1575.2 32.733044,40.681056,1579.4 32.734006,40.680806,1583.7 32.735052,40.680214,1601.3 32.736043,40.679903,1615.7 32.737041,40.679265,1627.0 32.737825,40.678935,1631.8 32.738846,40.678909,1636.0 32.739977,40.6789,1645.6 32.741086,40.679028,1663.7 32.742187,40.679219,1673.6 32.743154,40.679144,1678.5 32.744168,40.67898,1680.5 32.745176,40.678524,1686.6 32.746161,40.678294,1693.5 32.747092,40.678268,1694.7 32.748016,40.678197,1698.7 32.748871,40.678105,1705.8 32.749753,40.677975,1707.5 32.750501,40.677735,1707.8 32.751182,40.677121,1711.3 32.751544,40.676888,1715.1 32.751873,40.676636,1722.1 32.752176,40.676259,1727.2 32.75237,40.675941,1725.9 32.752698,40.675699,1723.1 32.752816,40.675463,1717.0 32.752983,40.6753,1713.4 32.753047,40.675004,1709.8 32.75302,40.674709,1705.6 32.752912,40.674457,1702.5 32.752775,40.674281,1700.3 32.752675,40.674104,1698.5 32.752522,40.67393,1695.5 32.752371,40.673787,1692.7 32.752125,40.673695,1691.5 32.751926,40.673587,1689.1 32.751756,40.673434,1686.3 32.7516,40.67322,1684.0 32.751474,40.673041,1682.5 32.751465,40.672845,1681.2 32.751395,40.672719,1679.7 32.751287,40.672496,1676.9 32.751216,40.672315,1675.2 32.751137,40.672188,1673.9 32.75102,40.672005,1672.5 32.750934,40.671818,1669.3 32.7509,40.671663,1666.6 32.750958,40.671528,1665.0 32.75112,40.671434,1664.3 32.751241,40.67135,1664.1 32.751089,40.671245,1664.4 32.750897,40.671202,1665.6 32.750716,40.671165,1665.4 32.750528,40.67112,1664.9 32.750351,40.671049,1664.3 32.750194,40.670964,1663.7 32.750024,40.670886,1663.4 32.74985,40.670801,1662.9 32.749689,40.670717,1662.4 32.749562,40.670702,1662.2 32.749374,40.670691,1660.4 32.749193,40.670606,1658.6 32.74904,40.670492,1657.0 32.748905,40.670376,1655.6 32.748754,40.670261,1652.8 32.748546,40.670214,1650.7 32.748351,40.670155,1650.0 32.748218,40.67005,1649.3 32.748127,40.669917,1648.0 32.748057,40.66983,1646.8 32.747961,40.669759,1645.9 32.747858,40.669709,1645.0 32.747754,40.669631,1643.9 32.747663,40.669548,1643.0 32.747608,40.669453,1642.4 32.747588,40.669306,1641.6 32.747542,40.669134,1640.6 32.747463,40.669047,1639.7 32.747401,40.668942,1639.0 32.747317,40.668872,1638.5 32.747205,40.668797,1637.5 32.747101,40.668721,1636.6 32.746979,40.668675,1635.5 32.746916,40.668588,1634.5 32.746839,40.668489,1633.6 32.746777,40.668412,1632.7 32.74671,40.668317,1632.0 32.746636,40.668238,1630.8 32.74656,40.668158,1629.8 32.746492,40.668076,1628.9 32.746417,40.667991,1628.1 32.746336,40.667904,1627.3 32.746267,40.667819,1626.6 32.746187,40.667738,1626.0 32.746135,40.667638,1625.4 32.746115,40.667548,1624.9 32.746075,40.667444,1623.9 32.746003,40.667365,1622.8 32.745923,40.667276,1622.0 32.745845,40.66719,1621.4 32.745762,40.667125,1621.0 32.745675,40.667032,1620.7 32.745583,40.666954,1620.1 32.745485,40.666882,1619.5 32.745479,40.66678,1618.6 32.745381,40.66671,1618.1 32.745278,40.666643,1617.7 32.745168,40.666582,1617.4 32.745054,40.666531,1616.9 32.744934,40.666507,1616.2 32.744822,40.66646,1615.7 32.744699,40.666416,1615.3 32.744564,40.666406,1614.7 32.744443,40.666375,1613.6 32.744313,40.666325,1613.0 32.744197,40.666291,1612.7 32.744066,40.666291,1612.3 32.743949,40.666252,1612.0 32.743653,40.666203,1610.6 32.743461,40.666202,1610.0 32.743309,40.666119,1609.2 32.743245,40.666029,1609.0 32.743206,40.665937,1609.1 32.743164,40.665848,1609.6 32.743114,40.665756,1609.7 32.743045,40.665672,1610.5 32.743031,40.665612,1611.9 32.742947,40.665532,1612.6 32.742894,40.665442,1613.3 32.742891,40.665339,1613.6 32.742884,40.665236,1614.4 32.742885,40.665135,1615.0 32.742938,40.665033,1615.7 32.743003,40.664947,1616.9 32.743086,40.664864,1618.4 32.74314,40.664779,1620.0 32.743159,40.664679,1621.7 32.743107,40.66459,1623.5 32.743005,40.664529,1625.3 32.742898,40.664471,1626.6 32.742764,40.664439,1628.1 32.742655,40.664395,1629.5 32.742534,40.664417,1630.0 32.742504,40.664401,1629.5 32.74247,40.664277,1629.1 32.742456,40.664175,1631.1 32.742433,40.664084,1632.1 32.742419,40.663985,1632.6 32.742445,40.663887,1632.9 32.742504,40.663799,1633.5 32.742581,40.663717,1634.1 32.742644,40.663634,1635.0 32.742721,40.663546,1636.0 32.742755,40.663449,1637.1 32.742871,40.663385,1638.0 32.742984,40.663327,1639.1 32.743081,40.663261,1639.9 32.743165,40.663184,1640.7 32.743263,40.663121,1641.4 32.7434,40.663091,1642.0 32.743532,40.663101,1642.7 32.743655,40.663126,1643.7 32.743789,40.663121,1644.5 32.743905,40.663077,1645.2 32.744043,40.663032,1646.9 32.744159,40.662994,1647.6 32.744285,40.66297,1648.3 32.744414,40.662939,1649.0 32.744542,40.66291,1650.0 32.744663,40.662889,1651.0 32.744785,40.66289,1651.9 32.744922,40.662878,1652.9 32.745083,40.662824,1654.2 32.745198,40.662784,1655.4 32.745332,40.662709,1656.9 32.745457,40.662671,1658.3 32.745584,40.662652,1658.8 32.745716,40.662623,1659.8 32.745837,40.662607,1660.8 32.74599,40.662619,1661.8 32.74612,40.662631,1662.9 32.746245,40.662607,1664.0 32.746376,40.662598,1665.3 32.746506,40.662581,1666.4 32.746632,40.662581,1667.6 32.746755,40.662579,1668.6 32.746889,40.662505,1670.0 32.746941,40.662417,1671.9 32.746878,40.662325,1673.2 32.746611,40.662255,1672.8 32.746432,40.662232,1670.8 32.746836,40.662457,1672.0 32.746943,40.662373,1671.9 32.746886,40.662283,1671.9 32.746832,40.662195,1671.9 32.746769,40.662101,1672.1 32.746735,40.662005,1672.1 32.746755,40.661899,1672.2 32.746783,40.661794,1672.5 32.746824,40.661694,1672.5 32.746885,40.661608,1672.6 32.746924,40.661491,1672.9 32.746978,40.661427,1672.9 32.747007,40.661338,1672.9 32.747009,40.661242,1672.9 32.747023,40.661135,1673.0 32.747047,40.661028,1673.2 32.747067,40.660926,1673.5 32.747092,40.660817,1673.7 32.747109,40.660713,1673.7 32.747147,40.660614,1673.9 32.747197,40.660515,1674.0 32.747227,40.660416,1674.1 32.747261,40.660321,1674.1 32.747293,40.660214,1674.3 32.747315,40.660119,1674.5 32.747351,40.660008,1674.7 32.74738,40.659918,1675.2 32.747416,40.659825,1675.4 32.747442,40.65973,1675.5 32.747486,40.659627,1675.5 32.747538,40.659533,1675.8 32.747556,40.659399,1676.1 32.747557,40.659357,1676.1 32.747554,40.659333,1676.1 32.747560,40.659297,1676.1 32.747566,40.659261,1676.1 32.747589,40.659200,1676.1 32.747604,40.659151,1676.1 32.747604,40.659108,1676.1 32.747625,40.659065,1676.1 32.747622,40.659039,1676.1 32.747647,40.658976,1676.1 32.747643,40.658925,1676.1 32.747643,40.658853,1676.1 32.747649,40.658788,1676.1 32.747630,40.658742,1676.1 32.747621,40.658682,1676.1 32.747595,40.658602,1676.1 32.747587,40.658568,1676.1 32.747578,40.658507,1676.1 32.747570,40.658473,1676.1 32.747563,40.658439,1676.1 32.747558,40.658384,1676.1 32.747544,40.658314,1676.1 32.747522,40.658258,1676.1 32.747504,40.658208,1676.1 32.747468,40.658158,1676.1 32.747436,40.658116,1676.1 32.747405,40.658073,1676.1 32.747358,40.658008,1676.1 32.747332,40.657972,1676.1 32.747291,40.657944,1676.1 32.747259,40.657901,1676.1 32.747222,40.657850,1676.1 32.747185,40.657799,1676.1 32.747148,40.657748,1676.1 32.747100,40.657682,1676.1 32.747039,40.657603,1676.1 32.746971,40.657516,1676.1 32.746898,40.657475,1676.1 32.746851,40.657440,1676.1 32.746809,40.657412,1676.1 32.746773,40.657392,1676.1 32.746738,40.657371,1676.1 
				32.746820,40.657500,1676.1 32.747100,40.657580,1676.1 32.747400,40.657650,1676.1 32.747760,40.656997,1660.0 
				32.747695,40.656657,1660.0 32.747774,40.656373,1660.0 32.747810,40.656023,1660.0 32.747556,40.655627,1660.0 32.747203,40.654969,1660.0 32.747135,40.654695,1660.0 32.746946,40.654544,1660.0 32.746862,40.654328,1660.0 32.746802,40.654158,1660.0 32.746890,40.653936,1660.0 32.746956,40.653726,1660.0 32.747122,40.653454,1660.0 32.746983,40.653340,1660.0 32.746943,40.653003,1660.0 32.747074,40.652803,1660.0 32.747114,40.652591,1660.0 32.747078,40.652425,1660.0 32.747139,40.652217,1660.0 32.747359,40.651906,1660.0 32.747641,40.651888,1660.0 32.747926,40.651734,1660.0 32.748135,40.651646,1660.0 32.748329,40.651544,1660.0 32.748407,40.651439,1660.0 32.748517,40.651317,1660.0 32.748689,40.651153,1660.0 32.748827,40.650923,1660.0 32.748923,40.650710,1660.0 32.748963,40.650336,1660.0 32.749009,40.650237,1660.0 32.749187,40.650126,1660.0 32.749399,40.650025,1660.0 32.750479,40.649440,1660.0 32.750667,40.649290,1660.0 32.751067,40.649100,1660.0 32.751252,40.648896,1660.0 32.751752,40.648651,1660.0 32.751873,40.648637,1660.0 32.752439,40.648331,1660.0 32.752569,40.648200,1660.0 32.752782,40.648086,1660.0 32.752975,40.648066,1660.0 32.753235,40.647995,1660.0 32.753591,40.647744,1660.0 32.754036,40.647447,1660.0 32.754361,40.647288,1660.0 32.754717,40.647251,1660.0 32.755227,40.647038,1660.0 32.755546,40.646879,1660.0 32.755921,40.646813,1660.0 32.756186,40.646800,1660.0 32.756482,40.646819,1660.0 32.756850,40.646867,1660.0 
				32.756890,40.646881,1627.3 32.756949,40.646885,1627.8 32.757022,40.646901,1628.4 32.757086,40.646897,1628.7 32.757146,40.646902,1628.7 32.757209,40.646917,1628.7 32.757275,40.646917,1628.6 32.757344,40.646922,1628.3 32.757401,40.646938,1628.0 32.757466,40.646954,1627.7 32.757528,40.646968,1627.4 32.757598,40.646981,1627.1 32.757701,40.646997,1626.7 32.757768,40.647005,1626.2 32.757834,40.647012,1625.5 32.757906,40.647026,1625.1 32.757968,40.647024,1624.6 32.758038,40.647024,1624.4 32.758111,40.647029,1624.1 32.758183,40.647030,1623.7 32.758242,40.647033,1623.3 32.758302,40.647037,1622.9 32.758367,40.647042,1622.6 32.758425,40.647056,1622.3 32.758485,40.647076,1622.1 32.758536,40.647101,1621.9 32.758594,40.647121,1621.7 32.758644,40.647153,1621.5 32.758704,40.647180,1621.2 32.758759,40.647200,1620.9 32.758820,40.647219,1620.7 32.758883,40.647216,1620.5 32.758936,40.647190,1620.3 32.758931,40.647138,1620.0 32.758924,40.647088,1619.5 32.758921,40.647042,1618.8 32.758906,40.646990,1618.2 32.758905,40.646940,1617.8 32.758908,40.646894,1617.4 32.758897,40.646810,1616.8 32.758923,40.646768,1616.2 32.758956,40.646728,1615.5 32.758978,40.646680,1615.1 32.759001,40.646633,1614.4 32.759023,40.646590,1614.2 32.759051,40.646548,1613.8 32.759085,40.646504,1613.4 32.759113,40.646460,1613.0 32.759133,40.646412,1612.6 32.759156,40.646366,1612.2 32.759179,40.646321,1611.8 32.759200,40.646276,1611.5 32.759232,40.646229,1611.2 32.759260,40.646181,1610.9 32.759298,40.646140,1610.6 32.759322,40.646092,1610.3 32.759364,40.646050,1610.1 32.759405,40.646010,1609.9 32.759527,40.645965,1609.5 32.759659,40.645946,1609.1 32.759790,40.645951,1608.6 32.759930,40.645959,1608.2 32.760052,40.645957,1607.6 32.760171,40.645976,1607.2 32.760293,40.645976,1606.6 32.760425,40.645973,1606.2 32.760570,40.645970,1605.8 32.760701,40.645969,1605.6 32.760832,40.645969,1605.4 32.760965,40.645923,1605.1 32.761025,40.645900,1604.9 32.761087,40.645888,1604.7 32.761149,40.645880,1604.5 32.761208,40.645860,1604.3 32.761273,40.645855,1604.1 32.761337,40.645849,1603.9 32.761399,40.645829,1603.7 32.761463,40.645814,1603.4 32.761514,40.645788,1603.2 32.761568,40.645769,1603.0 32.761619,40.645742,1602.7 32.761656,40.645701,1602.5 32.761705,40.645670,1602.3 32.761755,40.645633,1602.2 32.761804,40.645596,1602.1 32.761855,40.645568,1602.0 32.761901,40.645535,1602.0 32.761954,40.645497,1602.0 32.761999,40.645461,1601.8 32.762041,40.645426,1601.6 32.762088,40.645389,1601.4 32.762140,40.645354,1601.3 32.762178,40.645316,1601.1 32.762220,40.645275,1600.7 32.762229,40.645221,1600.4 32.762248,40.645168,1600.1 32.762258,40.645115,1599.7 32.762248,40.645066,1599.2 32.762254,40.645018,1598.7 32.762251,40.644970,1598.2 32.762254,40.644923,1597.8 32.762266,40.644870,1597.5 32.762275,40.644823,1597.2 32.762279,40.644772,1596.8 32.762286,40.644713,1596.5 32.762299,40.644665,1596.3 32.762300,40.644619,1596.0 32.762299,40.644573,1595.7 32.762316,40.644524,1595.5 32.762332,40.644473,1595.3 32.762352,40.644421,1595.0 32.762372,40.644375,1594.7 32.762414,40.644330,1594.3 32.762452,40.644290,1594.0 32.762505,40.644250,1593.7 32.762555,40.644224,1593.4 32.762620,40.644199,1593.2 32.762679,40.644173,1593.0 32.762746,40.644168,1592.7 32.762817,40.644166,1592.5 32.762890,40.644165,1592.2 32.762950,40.644169,1591.9 32.763010,40.644171,1591.7 32.763083,40.644172,1591.5 32.763149,40.644170,1591.2 32.763214,40.644162,1590.8 32.763274,40.644150,1590.3 32.763339,40.644120,1589.8 32.763434,40.644052,1589.4 
				32.763558,40.643946,1589.1 32.763633,40.643945,1588.9 32.763670,40.643945,1588.9 32.763734,40.643930,1588.8 32.763799,40.643915,1588.6 32.763842,40.643880,1588.4 32.763900,40.643828,1588.2 32.763945,40.643779,1588.0 32.763980,40.643713,1587.8 32.764017,40.643635,1587.6 32.764039,40.643572,1587.4 32.764061,40.643510,1587.2 32.764071,40.643448,1587.0 32.764104,40.643388,1586.8 32.764152,40.643376,1586.6 32.764213,40.643365,1586.5 32.764248,40.643367,1586.4 32.764299,40.643340,1586.3 32.764357,40.643344,1586.2 32.764405,40.643332,1586.1 32.764452,40.643335,1586.0 32.764500,40.643323,1585.9 32.764550,40.643296,1585.8 32.764598,40.643284,1585.7 32.764647,40.643257,1585.6 32.764697,40.643230,1585.5 32.764747,40.643198,1585.4 32.764758,40.643200,1585.4 32.764910,40.643179,1585.3 32.764958,40.643165,1585.2 32.765005,40.643152,1585.1 32.765054,40.643121,1585.0 32.765092,40.643071,1584.9 32.765120,40.643003,1584.8 32.765125,40.642926,1584.7 32.765130,40.642850,1584.6 32.765135,40.642790,1584.5 32.765140,40.642715,1584.4 32.765144,40.642657,1584.3 32.765149,40.642585,1584.2 32.765154,40.642517,1584.1 32.765158,40.642454,1584.0 32.765163,40.642379,1583.9 32.765166,40.642330,1583.8 32.765180,40.642284,1583.7 32.765194,40.642226,1583.6 32.765198,40.642167,1583.5 32.765202,40.642109,1583.4 32.765205,40.642063,1583.3 32.765218,40.642019,1583.2 32.765231,40.641975,1583.1 32.765244,40.641932,1583.0 32.765267,40.641891,1582.9 32.765289,40.641850,1582.8 32.765322,40.641810,1582.7 32.765344,40.641779,1582.6 32.765366,40.641736,1582.5 32.765388,40.641693,1582.4 32.765420,40.641652,1582.3 32.765461,40.641633,1582.2 32.765501,40.641614,1582.1 32.765532,40.641583,1582.0 32.765572,40.641564,1581.9 32.765602,40.641545,1581.8 32.765642,40.641516,1581.7 32.765672,40.641485,1581.6 32.765702,40.641453,1581.5 32.765732,40.641410,1581.4 32.765752,40.641378,1581.3
			</coordinates>
		</LineString>
	</Placemark>

	<!-- 3. DURAKLAR -->
	<Placemark>
		<name>Sevgi neydi? Sevgi iyilikti, dostluktu; sevgi emekti</name>
		<Point>
			<coordinates>32.748822,40.658238,0</coordinates>
		</Point>
	</Placemark>
	<Placemark>
		<name>Trabzonun T'si</name>
		<Point>
			<coordinates>32.746958,40.662552,0</coordinates>
		</Point>
	</Placemark>
	<Placemark>
		<name>Armut</name>
		<Point>
			<coordinates>32.747760,40.656997,0</coordinates>
		</Point>
	</Placemark>
	<Placemark>
		<name>Bayraklı çeşme</name>
		<Point>
			<coordinates>32.746446,40.678169,1691</coordinates>
		</Point>
	</Placemark>
	<Placemark>
		<name>Kök merdivenler</name>
		<Point>
			<coordinates>32.752987,40.675307,1713</coordinates>
		</Point>
	</Placemark>
	<Placemark>
		<name>Ayıbar</name>
		<Point>
			<coordinates>32.751355,40.672684,1676</coordinates>
		</Point>
	</Placemark>
	<Placemark>
		<name>Yayla evleri</name>
		<Point>
			<coordinates>32.742727,40.664425,1625</coordinates>
		</Point>
	</Placemark>
	<Placemark>
		<name>Göl</name>
		<Point>
			<coordinates>32.766538,40.64175,1560</coordinates>
		</Point>
	</Placemark>
</Document>
</kml>
